IRIDIUM 36              
1 24967U 97056C   24131.58626456  .00000958  00000+0  31815-3 0  9990
2 24967  86.3969 342.0869 0002006  90.4411 269.7016 14.36772664394395
IRIDIUM 39              
1 25042U 97069D   24131.76035944  .00001285  00000+0  34076-3 0  9991
2 25042  86.3956  23.5666 0017114 203.2141 156.8291 14.47909024390966
IRIDIUM 38              
1 25043U 97069E   24131.46639284  .00001012  00000+0  33357-3 0  9995
2 25043  86.3993  42.5069 0002517  41.1078 319.0309 14.37226879388098
IRIDIUM 42              
1 25077U 97077A   24131.47459489  .00000960  00000+0  32695-3 0  9994
2 25077  86.3992  48.1783 0002367  69.7403 290.4048 14.35530486383402
IRIDIUM 44              
1 25078U 97077B   24131.46598178  .00000991  00000+0  31268-3 0  9992
2 25078  86.3995  31.1928 0000477  60.7924 299.3322 14.39362076385753
IRIDIUM 45              
1 25104U 97082A   24131.79856144  .00016344  00000+0  92786-3 0  9995
2 25104  86.3770 239.7810 0161473  16.1897 344.4407 15.02315516391490
IRIDIUM 24              
1 25105U 97082B   24131.87857458  .00001446  00000+0  44259-3 0  9993
2 25105  86.3914 250.6567 0010327 336.2691  23.8030 14.41136939385508
IRIDIUM 51              
1 25262U 98018A   24131.81937722  .00024774  00000+0  11804-2 0  9992
2 25262  86.3960 249.6991 0146516 320.8756  38.1956 15.09899112385996
